{
    "links": {
        "self": "http://www.neowsapp.com/rest/v1/neo/3879313?api_key=iIulBulltgU6a56xZRHN4H3l9WmuAYTsLGpBGhQ2"
    },
    "id": "3879313",
    "neo_reference_id": "3879313",
    "name": "(2019 UL3)",
    "designation": "2019 UL3",
    "nasa_jpl_url": "http://ssd.jpl.nasa.gov/sbdb.cgi?sstr=3879313",
    "absolute_magnitude_h": 28.3,
    "estimated_diameter": {
        "kilometers": {
            "estimated_diameter_min": 0.0058150704,
            "estimated_diameter_max": 0.0130028927
        },
        "meters": {
            "estimated_diameter_min": 5.8150703965,
            "estimated_diameter_max": 13.0028927004
        },
        "miles": {
            "estimated_diameter_min": 0.0036133161,
            "estimated_diameter_max": 0.0080796204
        },
        "feet": {
            "estimated_diameter_min": 19.0783155595,
            "estimated_diameter_max": 42.6604104873
        }
    },
    "is_potentially_hazardous_asteroid": false,
    "close_approach_data": [
        {
            "close_approach_date": "2015-07-01",
            "close_approach_date_full": "2015-Jul-01 22:48",
            "epoch_date_close_approach": 1435790880000,
            "relative_velocity": {
                "kilometers_per_second": "16.219917634",
                "kilometers_per_hour": "58391.7034825523",
                "miles_per_hour": "36282.3337555892"
            },
            "miss_distance": {
                "astronomical": "0.2458061978",
                "lunar": "95.6186109442",
                "kilometers": "36772083.623678686",
                "miles": "22849113.2362944268"
            },
            "orbiting_body": "Earth"
        },
        {
            "close_approach_date": "2017-07-28",
            "close_approach_date_full": "2017-Jul-28 22:19",
            "epoch_date_close_approach": 1501280340000,
            "relative_velocity": {
                "kilometers_per_second": "8.1788386635",
                "kilometers_per_hour": "29443.8191885232",
                "miles_per_hour": "18295.2442063354"
            },
            "miss_distance": {
                "astronomical": "0.0281988567",
                "lunar": "10.9693552563",
                "kilometers": "4218488.898755229",
                "miles": "2621247.4528270002"
            },
            "orbiting_body": "Earth"
        },
        {
            "close_approach_date": "2019-10-19",
            "close_approach_date_full": "2019-Oct-19 22:22",
            "epoch_date_close_approach": 1571523720000,
            "relative_velocity": {
                "kilometers_per_second": "8.9534034822",
                "kilometers_per_hour": "32232.2525360601",
                "miles_per_hour": "20027.8682494202"
            },
            "miss_distance": {
                "astronomical": "0.0019884289",
                "lunar": "0.7734988421",
                "kilometers": "297464.728086443",
                "miles": "184836.0110731934"
            },
            "orbiting_body": "Earth"
        },
        {
            "close_approach_date": "2019-10-20",
            "close_approach_date_full": "2019-Oct-20 06:32",
            "epoch_date_close_approach": 1571553120000,
            "relative_velocity": {
                "kilometers_per_second": "9.6869961127",
                "kilometers_per_hour": "34873.1860056396",
                "miles_per_hour": "21668.8416044487"
            },
            "miss_distance": {
                "astronomical": "0.0026092657",
                "lunar": "1.0150043573",
                "kilometers": "390340.590984059",
                "miles": "242546.3962116542"
            },
            "orbiting_body": "Moon"
        },
        {
            "close_approach_date": "2021-11-12",
            "close_approach_date_full": "2021-Nov-12 10:20",
            "epoch_date_close_approach": 1636712400000,
            "relative_velocity": {
                "kilometers_per_second": "17.7088915107",
                "kilometers_per_hour": "63752.009438686",
                "miles_per_hour": "39613.019420388"
            },
            "miss_distance": {
                "astronomical": "0.2910780106",
                "lunar": "113.2293461234",
                "kilometers": "43544650.389597422",
                "miles": "27057391.0841995436"
            },
            "orbiting_body": "Earth"
        }
    ],
    "orbital_data": {
        "orbit_id": "3",
        "orbit_determination_date": "2019-11-10 04:59:58",
        "first_observation_date": "2019-10-22",
        "last_observation_date": "2019-11-03",
        "data_arc_in_days": 12,
        "observations_used": 25,
        "orbit_uncertainty": "7",
        "minimum_orbit_intersection": ".00200136",
        "jupiter_tisserand_invariant": "4.235",
        "epoch_osculation": "2459000.5",
        "eccentricity": ".4257715466032524",
        "semi_major_axis": "1.612358430963073",
        "inclination": ".4098810937075579",
        "ascending_node_longitude": "9.698172428691185",
        "orbital_period": "747.8092212688749",
        "perihelion_distance": ".9258620881331322",
        "perihelion_argument": "336.1451300710603",
        "aphelion_distance": "2.298854773793014",
        "perihelion_time": "2458744.514033518579",
        "mean_anomaly": "123.2332329052375",
        "mean_motion": ".4814062059694259",
        "equinox": "J2000",
        "orbit_class": {
            "orbit_class_type": "APO",
            "orbit_class_description": "Near-Earth asteroid orbits which cross the Earth’s orbit similar to that of 1862 Apollo",
            "orbit_class_range": "a (semi-major axis) > 1.0 AU; q (perihelion) < 1.017 AU"
        }
    },
    "is_sentry_object": false
}